{
  "norad_id": 55480,
  "name": "STARLINK-5690",
  "history": [
    {
      "epoch": "2026-03-28T16:13:10.390080Z",
      "apogee_km": 486.5545123296324,
      "perigee_km": 484.5420798008254,
      "latitude_deg": 2.4393706828003508e-05,
      "longitude_deg": 162.6366848108858,
      "height_km": 485.38794693355,
      "semi_major_axis_km": 6863.685296065229,
      "eccentricity": 0.0001466,
      "inclination_deg": 43.0007,
      "raan_deg": 232.0228,
      "arg_perigee_deg": 266.4247,
      "mean_anomaly_deg": 93.6437,
      "mean_motion_rev_day": 15.26745744
    },
    {
      "epoch": "2026-03-30T15:19:25.080672Z",
      "apogee_km": 486.4099113501188,
      "perigee_km": 484.71320506653046,
      "latitude_deg": 1.7220318281054905e-05,
      "longitude_deg": 163.07207162323857,
      "height_km": 485.51263259334553,
      "semi_major_axis_km": 6863.698558208324,
      "eccentricity": 0.0001236,
      "inclination_deg": 43.0032,
      "raan_deg": 220.9539,
      "arg_perigee_deg": 258.1562,
      "mean_anomaly_deg": 101.9151,
      "mean_motion_rev_day": 15.26741319
    },
    {
      "epoch": "2026-03-31T14:52:32.292480Z",
      "apogee_km": 486.4682168750078,
      "perigee_km": 484.65620028394187,
      "latitude_deg": -3.501663552811248e-05,
      "longitude_deg": 163.28882160360064,
      "height_km": 485.4631821919505,
      "semi_major_axis_km": 6863.6992085794745,
      "eccentricity": 0.000132,
      "inclination_deg": 43.0025,
      "raan_deg": 215.418,
      "arg_perigee_deg": 262.1335,
      "mean_anomaly_deg": 97.9366,
      "mean_motion_rev_day": 15.26741102
    },
    {
      "epoch": "2026-04-01T14:25:42.917952Z",
      "apogee_km": 486.64218002922826,
      "perigee_km": 484.69285954560746,
      "latitude_deg": -2.018653873145368e-05,
      "longitude_deg": 163.49178054311537,
      "height_km": 485.5359945177824,
      "semi_major_axis_km": 6863.804519787417,
      "eccentricity": 0.000142,
      "inclination_deg": 43.0003,
      "raan_deg": 209.8825,
      "arg_perigee_deg": 264.6042,
      "mean_anomaly_deg": 95.4647,
      "mean_motion_rev_day": 15.26705965
    }
  ]
}